0 SES 7 (PROTOSTAR 2)
1 34941U 09027A   13281.80242041 -.00000357  00000-0  10000-3 0  9760
2 34941 000.0901 064.0862 0001854 167.6283 182.9393 01.00271458 16167
0 SES 7 (PROTOSTAR 2)
1 34941U 09027A   13282.85684911  .00000000  00000-0  10000-3 0  9788
2 34941 000.0899 066.4350 0002057 175.9116 192.9215 01.00266452 14647
0 SES 7 (PROTOSTAR 2)
1 34941U 09027A   13282.87046988 -.00000360  00000-0  10000-3 0  9775
2 34941 000.0917 064.5603 0001864 166.0901 209.5497 01.00270771 16172
0 SES 7 (PROTOSTAR 2)
1 34941U 09027A   13285.91614844 -.00000368  00000-0  10000-3 0  9795
2 34941 000.0922 067.1606 0001644 153.6087 238.8780 01.00270644 16206
0 SES 7 (PROTOSTAR 2)
1 34941U 09027A   13288.53172409 -.00000369  00000-0  10000-3 0  9816
2 34941 000.1039 067.1122 0002788 179.3544 077.3522 01.00270820 16220
0 SES 7 (PROTOSTAR 2)
1 34941U 09027A   13288.53179784 -.00000370  00000-0  10000-3 0  9800
2 34941 000.1040 067.1090 0002788 180.5592 076.1775 01.00270912 16222
0 SES 7 (PROTOSTAR 2)
1 34941U 09027A   13289.78280859 -.00000368  00000-0  10000-3 0  9823
2 34941 000.1069 067.5789 0002863 180.9510 166.9082 01.00270463 16242
0 SES 7 (PROTOSTAR 2)
1 34941U 09027A   13291.54692008 -.00000364  00000-0  10000-3 0  9830
2 34941 000.1106 067.9015 0003064 180.6909 083.6603 01.00270313 16252
0 SES 7 (PROTOSTAR 2)
1 34941U 09027A   13291.76942656 -.00000364  00000-0  10000-3 0  9842
2 34941 000.1110 068.0686 0002797 179.5891 164.9211 01.00270633 16266
0 SES 7 (PROTOSTAR 2)
1 34941U 09027A   13292.78059696 -.00000362  00000-0  10000-3 0  9857
2 34941 000.1130 068.1717 0002139 177.4503 171.9823 01.00271070 16275
0 SES 7 (PROTOSTAR 2)
1 34941U 09027A   13293.53198640 -.00000361  00000-0  10000-3 0  9864
2 34941 000.1138 068.4273 0001837 175.9288 084.4956 01.00271626 16272
0 SES 7 (PROTOSTAR 2)
1 34941U 09027A   13293.87444280 -.00000360  00000-0  10000-3 0  9875
2 34941 000.1140 068.9757 0002201 176.1203 207.3734 01.00271390 16282
0 SES 7 (PROTOSTAR 2)
1 34941U 09027A   13295.58710544 -.00000357  00000-0  10000-3 0  9881
2 34941 000.1176 069.2037 0002411 175.3053 106.2059 01.00270995 16291
